[{"OBJECT_NAME":"TOMORROW-S1","OBJECT_ID":"2024-149M","EPOCH":"2026-03-09T17:23:34.533600","MEAN_MOTION":15.31198363,"ECCENTRICITY":0.00018188,"INCLINATION":97.3791,"RA_OF_ASC_NODE":149.6044,"ARG_OF_PERICENTER":207.204,"MEAN_ANOMALY":152.9106,"EPHEMERIS_TYPE":0,"CLASSIFICATION_TYPE":"U","NORAD_CAT_ID":60479,"ELEMENT_SET_NO":999,"REV_AT_EPOCH":8686,"BSTAR":0.0002885603,"MEAN_MOTION_DOT":8.62e-5,"MEAN_MOTION_DDOT":0},{"OBJECT_NAME":"STARLINK-35167","OBJECT_ID":"2025-216C","EPOCH":"2026-03-09T22:42:50.499648","MEAN_MOTION":15.30204669,"ECCENTRICITY":0.00011938,"INCLINATION":53.1587,"RA_OF_ASC_NODE":331.6501,"ARG_OF_PERICENTER":109.2269,"MEAN_ANOMALY":250.8861,"EPHEMERIS_TYPE":0,"CLASSIFICATION_TYPE":"U","NORAD_CAT_ID":65736,"ELEMENT_SET_NO":999,"REV_AT_EPOCH":2658,"BSTAR":0.00077745284,"MEAN_MOTION_DOT":0.00022741,"MEAN_MOTION_DDOT":0}]
